HIMAWARI-8              
1 40267U 14060A   24291.58174255 -.00000277  00000+0  00000+0 0  9990
2 40267   0.0142 235.0761 0001217  21.1343 120.4580  1.00267839 36664
